{"fetched_at":"2026-03-30T06:02:59Z","count":15439,"tles":[{"name":"STARLINK-5302","line1":"1 56556U 23065BF  26087.76806671  .00000610  00000+0  32431-4 0  9990","line2":"2 56556  43.0023 115.5165 0001209 274.7046  85.3667 15.26747121159395","category":"Starlink"}]}